[Satellite]
VERSION=1.1
NAME=EROS B
NICKNAME=EROS B
TLE1=1 29079U 06014A   17186.20133819  .00002574  00000-0  87708-4 0  9990
TLE2=2 29079  97.3540 306.5098 0004843  34.1140   8.8705 15.31284393621107
